     2.100          NAVIGATION                              RINEX VERSION / TYPE
fic2rin                                 03/02/2009 01:14:05 PGM / RUN BY / DATE
                                                            END OF HEADER
13 09  3  1 20  0  0.0  .290177296847D-03  .125055521494D-11  .000000000000D+00
     .540000000000D+02 -.735000000000D+02  .356264839861D-08  .206930234835D+01
    -.399909913540D-05  .383657566272D-02  .753812491894D-05  .515375160217D+04
     .720000000000D+05 -.149011611938D-07 -.302444648648D+01 -.670552253723D-07
     .995474682979D+00  .247781250000D+03  .150897233645D+01 -.766103339851D-08
    -.348228790841D-09  .100000000000D+01  .152100000000D+04  .000000000000D+00
     .240000000000D+01  .000000000000D+00 -.111758708954D-07  .540000000000D+02
     .648060000000D+05  .400000000000D+01
15 09  3  1 20  0  0.0 -.263339374214D-03 -.500222085975D-11  .000000000000D+00
     .510000000000D+02 -.850937500000D+02  .460162024738D-08  .211995472382D+01
    -.414624810219D-05  .142998655792D-02  .668317079544D-05  .515359203529D+04
     .720000000000D+05  .540167093277D-07 -.309310401588D+01  .409781932831D-07
     .957127312309D+00  .246031250000D+03 -.652504440960D+00 -.825355807954D-08
    -.386087510666D-09  .100000000000D+01  .152100000000D+04  .000000000000D+00
     .240000000000D+01  .000000000000D+00 -.977888703346D-08  .510000000000D+02
     .648060000000D+05  .400000000000D+01
16 09  3  1 20  0  0.0  .709071755409D-04 -.284217094304D-11  .000000000000D+00
     .220000000000D+02 -.737500000000D+01  .462197823823D-08 -.275644430067D+01
    -.204890966415D-06  .515105680097D-02  .555627048016D-05  .515376636314D+04
     .720000000000D+05 -.465661287308D-07 -.963736035954D+00  .111758708954D-07
     .967560096499D+00  .277562500000D+03 -.385475040080D+00 -.807533637017D-08
     .264653881039D-09  .100000000000D+01  .152100000000D+04  .000000000000D+00
     .240000000000D+01  .000000000000D+00 -.977888703346D-08  .220000000000D+02
     .648060000000D+05  .400000000000D+01
17 09  3  1 20  0  0.0  .486653298140D-04  .136424205266D-11  .000000000000D+00
     .820000000000D+02 -.278437500000D+02  .448625829924D-08  .243547804355D+01
    -.130943953991D-05  .428487930913D-02  .978261232376D-05  .515364940834D+04
     .720000000000D+05 -.115483999252D-06  .781332711129D-01 -.223517417908D-07
     .960134163408D+00  .187750000000D+03 -.272283255675D+01 -.788961434839D-08
    -.263582407837D-09  .100000000000D+01  .152100000000D+04  .000000000000D+00
     .340000000000D+01  .000000000000D+00 -.102445483208D-07  .820000000000D+02
     .648060000000D+05  .400000000000D+01
18 09  3  1 20  0  0.0 -.787666067481D-04  .352429196937D-11  .000000000000D+00
     .520000000000D+02  .470000000000D+02  .523164649050D-08 -.262614358298D+01
     .242330133915D-05  .997137674130D-02  .246241688728D-05  .515375894165D+04
     .720000000000D+05  .614672899246D-07  .218801640522D+01 -.219792127609D-06
     .943376597730D+00  .321843750000D+03 -.243721843330D+01 -.856999983204D-08
     .360729311538D-10  .100000000000D+01  .152100000000D+04  .000000000000D+00
     .240000000000D+01  .000000000000D+00 -.107102096081D-07  .520000000000D+02
     .648060000000D+05  .400000000000D+01
19 09  3  1 20  0  0.0  .315057113767D-04 -.682121026330D-12  .000000000000D+00
     .750000000000D+02 -.333750000000D+02  .461376361035D-08  .171536002617D+01
    -.172480940819D-05  .528097560164D-02  .974349677563D-05  .515357238007D+04
     .720000000000D+05  .372529029846D-07  .134415187961D+00  .316649675369D-07
     .957864659594D+00  .189031250000D+03 -.382137509515D+00 -.797890378194D-08
    -.373586989969D-09  .100000000000D+01  .152100000000D+04  .000000000000D+00
     .240000000000D+01  .000000000000D+00 -.149011611938D-07  .750000000000D+02
     .648060000000D+05  .400000000000D+01
20 09  3  1 20  0  0.0  .893813557923D-04 -.102318153949D-11  .000000000000D+00
     .300000000000D+01  .401562500000D+02  .525093300815D-08 -.247176992216D+01
     .217556953430D-05  .400528416503D-02  .275485217571D-05  .515366650772D+04
     .720000000000D+05  .782310962677D-07  .213421565010D+01  .651925802231D-07
     .942957953001D+00  .318468750000D+03  .132317647534D+01 -.858750056101D-08
     .303584074067D-10  .100000000000D+01  .152100000000D+04  .000000000000D+00
     .240000000000D+01  .000000000000D+00 -.651925802231D-08  .300000000000D+01
     .648060000000D+05  .400000000000D+01
21 09  3  1 20  0  0.0  .266144052148D-04 -.181898940355D-11  .000000000000D+00
     .900000000000D+02  .987812500000D+02  .502306637373D-08 -.133448153467D+01
     .498443841934D-05  .147406853503D-01  .949017703533D-05  .515364138412D+04
     .720000000000D+05  .229105353355D-06  .112908342711D+01 -.171363353729D-06
     .934405747076D+00  .178156250000D+03 -.264167359069D+01 -.817534053575D-08
     .228580949885D-09  .100000000000D+01  .152100000000D+04  .000000000000D+00
     .240000000000D+01  .000000000000D+00 -.116415321827D-07  .900000000000D+02
     .648060000000D+05  .400000000000D+01
22 09  3  1 20  0  0.0  .204307027161D-03 -.454747350886D-12  .000000000000D+00
     .430000000000D+02  .474687500000D+02  .529236330532D-08  .256213125736D+01
     .239349901676D-05  .486298417673D-02  .246055424213D-05  .515366373634D+04
     .720000000000D+05 -.931322574615D-08  .219389309051D+01 -.819563865662D-07
     .941040424351D+00  .320687500000D+03 -.183589825703D+01 -.860321550132D-08
    -.432160858377D-10  .100000000000D+01  .152100000000D+04  .000000000000D+00
     .240000000000D+01  .000000000000D+00 -.181607902050D-07  .430000000000D+02
     .648060000000D+05  .400000000000D+01
23 09  3  1 20  0  0.0  .387756619602D-03  .568434188608D-12  .000000000000D+00
     .860000000000D+02 -.699687500000D+02  .418588864478D-08  .118293536388D+01
    -.361911952496D-05  .581403239630D-02  .679865479469D-05  .515364453316D+04
     .720000000000D+05  .484287738800D-07 -.307436703134D+01  .111758708954D-07
     .971051325625D+00  .248906250000D+03  .288030760097D+01 -.804604943597D-08
    -.382158775590D-09  .100000000000D+01  .152100000000D+04  .000000000000D+00
     .240000000000D+01  .000000000000D+00 -.200234353542D-07  .860000000000D+02
     .648060000000D+05  .400000000000D+01
24 09  3  1 20  0  0.0  .169550534338D-03  .306954461848D-11  .000000000000D+00
     .670000000000D+02  .109312500000D+03  .464840791056D-08 -.271131242358D+01
     .564195215702D-05  .688253017142D-02  .102706253529D-04  .515367811775D+04
     .720000000000D+05 -.651925802231D-07  .115976084410D+01  .104308128357D-06
     .951019993594D+00  .175156250000D+03 -.639387709727D+00 -.795890294883D-08
     .117862052285D-09  .100000000000D+01  .152100000000D+04  .000000000000D+00
     .340000000000D+01  .000000000000D+00 -.139698386192D-08  .670000000000D+02
     .648060000000D+05  .400000000000D+01
25 09  3  1 20  0  0.0  .273834913969D-03  .238742359215D-10  .000000000000D+00
     .103000000000D+03 -.124375000000D+02  .402159608705D-08 -.220035986429D+01
    -.663101673126D-06  .117449335521D-01  .100862234831D-04  .515367078972D+04
     .720000000000D+05  .106170773506D-06 -.212715805491D+01  .214204192162D-06
     .968470599156D+00  .188156250000D+03 -.122035876427D+01 -.769139180591D-08
     .204294223960D-09  .100000000000D+01  .152100000000D+04  .000000000000D+00
     .485000000000D+01  .000000000000D+00 -.745058059692D-08  .103000000000D+03
     .648060000000D+05  .400000000000D+01
26 09  3  1 20  0  0.0  .481158494949D-04  .272848410532D-11  .000000000000D+00
     .700000000000D+02 -.753437500000D+02  .381944480949D-08  .701220059190D+00
    -.364705920219D-05  .201241638279D-01  .799074769020D-05  .515486249924D+04
     .720000000000D+05 -.240281224251D-06 -.302663438580D+01  .156462192535D-06
     .993341091569D+00  .246375000000D+03  .980139375036D+00 -.808676541767D-08
    -.527164815673D-09  .100000000000D+01  .152100000000D+04  .000000000000D+00
     .240000000000D+01  .000000000000D+00 -.651925802231D-08  .700000000000D+02
     .648060000000D+05  .400000000000D+01
27 09  3  1 20  0  0.0  .287410803139D-04  .318323145621D-11  .000000000000D+00
     .148000000000D+03 -.144687500000D+02  .385516058291D-08  .288655113930D+01
    -.823289155960D-06  .210027229041D-01  .105295330286D-04  .515516178513D+04
     .720000000000D+05  .232830643654D-06 -.209117668652D+01 -.931322574615D-07
     .973120566195D+00  .174781250000D+03 -.163916506738D+01 -.739423657106D-08
     .273225666660D-09  .100000000000D+01  .152100000000D+04  .000000000000D+00
     .340000000000D+01  .000000000000D+00 -.419095158577D-08  .148000000000D+03
     .648060000000D+05  .400000000000D+01
28 09  3  1 20  0  0.0 -.235904008150D-04  .000000000000D+00  .000000000000D+00
     .110000000000D+03 -.158125000000D+02  .457483341732D-08  .287645610339D+01
    -.908970832825D-06  .147494968260D-01  .524520874023D-05  .515363405991D+04
     .720000000000D+05  .800937414169D-07 -.955428606945D+00 -.137835741043D-06
     .965755685064D+00  .280812500000D+03 -.204590945001D+01 -.787532803902D-08
     .187864968187D-09  .100000000000D+01  .152100000000D+04  .000000000000D+00
     .340000000000D+01  .000000000000D+00 -.107102096081D-07  .110000000000D+03
     .648060000000D+05  .400000000000D+01
29 09  3  1 20  0  0.0 -.551063567400D-05  .352429196937D-11  .000000000000D+00
     .600000000000D+02 -.258125000000D+02  .456447584303D-08 -.129263595968D+01
    -.127963721752D-05  .330721342470D-02  .969693064690D-05  .515372643471D+04
     .720000000000D+05 -.298023223877D-07  .863198045721D-01  .279396772385D-07
     .960329716056D+00  .193250000000D+03 -.134504008300D+01 -.797283210046D-08
    -.310370071016D-09  .100000000000D+01  .152100000000D+04  .000000000000D+00
     .240000000000D+01  .000000000000D+00 -.884756445885D-08  .600000000000D+02
     .648060000000D+05  .400000000000D+01
